{
"type": "FeatureCollection",
"name": "shapes",
"crs": { "type": "name", "properties": { "name": "urn:ogc:def:crs:OGC:1.3:CRS84" } },
"features": [
{ "type": "Feature", "properties": { "id": 4624, "ParcelleID": "46-B4", "SurfaceSIG": 25290, "Peuplement": null }, "geometry": { "type": "MultiPolygon", "coordinates": [ [ [ [ 9.985836553550113, 50.576691655163003 ], [ 9.985859653645779, 50.575322070408085 ], [ 9.985307958995683, 50.575237014035707 ], [ 9.984033910582436, 50.574789423112833 ], [ 9.983234241897527, 50.575073471691589 ], [ 9.98297672147357, 50.575512452489733 ], [ 9.983627299386718, 50.575744852432535 ], [ 9.983884819810674, 50.576106361175633 ], [ 9.985836553550113, 50.576691655163003 ] ] ] ] } },
{ "type": "Feature", "properties": { "id": 531, "ParcelleID": "53-1", "SurfaceSIG": 77963, "Peuplement": "53-1" }, "geometry": { "type": "MultiPolygon", "coordinates": [ [ [ [ 9.92575744133589, 50.581814828532401 ], [ 9.926771099273587, 50.581404560699248 ], [ 9.926771099273587, 50.581404560699248 ], [ 9.927171177608319, 50.581224555954428 ], [ 9.927804609507605, 50.580793850106431 ], [ 9.92813477208229, 50.580481618351016 ], [ 9.926533368156775, 50.579704762625163 ], [ 9.924897174643169, 50.578890701775407 ], [ 9.923024829488423, 50.580068943186774 ], [ 9.923007961514053, 50.58091511655968 ], [ 9.923716416437474, 50.58134355297608 ], [ 9.92373328441184, 50.58161132375708 ], [ 9.924171851745381, 50.581868382274465 ], [ 9.924171851745381, 50.582114728703644 ], [ 9.924441739335254, 50.582339652578781 ], [ 9.92575744133589, 50.581814828532401 ] ] ] ] } },
{ "type": "Feature", "properties": { "id": 426, "ParcelleID": "42", "SurfaceSIG": 99638, "Peuplement": null }, "geometry": { "type": "MultiPolygon", "coordinates": [ [ [ [ 9.972986726901679, 50.568595693508527 ], [ 9.974168527769425, 50.567695938209795 ], [ 9.972566070204552, 50.566688814707604 ], [ 9.972498598307086, 50.565070943591635 ], [ 9.97239739046088, 50.564845937248442 ], [ 9.971317840101387, 50.564481638986315 ], [ 9.971891351229871, 50.564299488799101 ], [ 9.971925087178601, 50.564063763982276 ], [ 9.971184517157514, 50.56412082028087 ], [ 9.970575978802337, 50.564581707253396 ], [ 9.970505762838277, 50.564983121266394 ], [ 9.970786626694517, 50.565087191007869 ], [ 9.970341925588812, 50.566157609294422 ], [ 9.969358902091992, 50.567480731626297 ], [ 9.969780197876339, 50.567629394734993 ], [ 9.969475928698751, 50.568670023362571 ], [ 9.970131277696632, 50.568878146330071 ], [ 9.97167602890592, 50.568878146330071 ], [ 9.972986726901679, 50.568595693508527 ] ] ] ] } },
{ "type": "Feature", "properties": { "id": 4811, "ParcelleID": "48-A1", "SurfaceSIG": 117058, "Peuplement": null }, "geometry": { "type": "MultiPolygon", "coordinates": [ [ [ [ 9.95966640825093, 50.582956699651 ], [ 9.961374492574398, 50.583700757627511 ], [ 9.962573713644826, 50.584059529515599 ], [ 9.963937424450361, 50.584861468470912 ], [ 9.964250279980044, 50.585284121227609 ], [ 9.964439366408829, 50.585620278087362 ], [ 9.96431208092093, 50.585903262076286 ], [ 9.964888062843961, 50.586294184131681 ], [ 9.965464044766991, 50.586785984688277 ], [ 9.966059888135641, 50.586243742758519 ], [ 9.966576285721803, 50.586092418314813 ], [ 9.96745018932916, 50.585323178206515 ], [ 9.96745018932916, 50.585323178206515 ], [ 9.967298258591276, 50.584692182770404 ], [ 9.965861273679424, 50.584528703919588 ], [ 9.965821550788178, 50.584301708804155 ], [ 9.966059888135641, 50.584099934449611 ], [ 9.96604997478579, 50.583651908056332 ], [ 9.966206010261478, 50.583265514452258 ], [ 9.964224359720271, 50.582789948741052 ], [ 9.96224270917906, 50.582245023792701 ], [ 9.960749969795001, 50.581908157943559 ], [ 9.95966640825093, 50.582956699651 ] ] ] ] } },
{ "type": "Feature", "properties": { "id": 383, "ParcelleID": "38-3", "SurfaceSIG": 62540, "Peuplement": null }, "geometry": { "type": "MultiPolygon", "coordinates": [ [ [ [ 9.981531954274958, 50.557723108358111 ], [ 9.982227104871724, 50.557672636384318 ], [ 9.982405857882314, 50.557836670101537 ], [ 9.982723641012264, 50.558051174870386 ], [ 9.982723641012264, 50.558240442973378 ], [ 9.982703779566643, 50.558417092517139 ], [ 9.982882532577239, 50.55829091433916 ], [ 9.983498237391508, 50.558101646438828 ], [ 9.983577683174, 50.557723108358111 ], [ 9.983895466303947, 50.557697872377972 ], [ 9.982822948240372, 50.556865077453359 ], [ 9.983319484380914, 50.556549620988044 ], [ 9.982596390732807, 50.555922170385259 ], [ 9.980932430159507, 50.555013168147696 ], [ 9.980121791635817, 50.555451816031542 ], [ 9.979208165137221, 50.555981794030266 ], [ 9.978671906105435, 50.556436056143717 ], [ 9.978572598877324, 50.556776749855878 ], [ 9.97805620129116, 50.5571300592527 ], [ 9.978349471156706, 50.55709731151142 ], [ 9.979309438312443, 50.556913243158213 ], [ 9.980058059615454, 50.556666090843123 ], [ 9.980947461826855, 50.55709731151142 ], [ 9.981531954274958, 50.557723108358111 ] ] ] ] } },
{ "type": "Feature", "properties": { "id": 3523, "ParcelleID": "35-B3", "SurfaceSIG": 68773, "Peuplement": null }, "geometry": { "type": "MultiPolygon", "coordinates": [ [ [ [ 9.972598445810856, 50.560582033224051 ], [ 9.972874800518113, 50.560773513468639 ], [ 9.97348910247935, 50.560968633613001 ], [ 9.97360428409708, 50.560627172830237 ], [ 9.973335526989041, 50.560346685336491 ], [ 9.97360428409708, 50.560297904732401 ], [ 9.97433376767605, 50.560639367900791 ], [ 9.975332008363061, 50.559871072292886 ], [ 9.976149370949553, 50.55920874886651 ], [ 9.976313208199022, 50.558673463839277 ], [ 9.976172776270911, 50.557409572291277 ], [ 9.975831128706567, 50.556797764615276 ], [ 9.97504405431873, 50.555919639900004 ], [ 9.974791422323806, 50.555783157463644 ], [ 9.975018752099292, 50.556247524855699 ], [ 9.97478554550379, 50.556379668183958 ], [ 9.974262406384156, 50.556411702874421 ], [ 9.974599610515485, 50.556964297857874 ], [ 9.974668942206041, 50.557168516103566 ], [ 9.974517673063014, 50.557532903324507 ], [ 9.972598445810856, 50.560582033224051 ] ] ] ] } },
{ "type": "Feature", "properties": { "id": 5223, "ParcelleID": "52-B3", "SurfaceSIG": 16699, "Peuplement": "52-B3" }, "geometry": { "type": "MultiPolygon", "coordinates": [ [ [ [ 9.935388620733237, 50.576078205764496 ], [ 9.936650921989845, 50.576276457509273 ], [ 9.937586668435321, 50.57668753657812 ], [ 9.937832199623328, 50.576446226057904 ], [ 9.937691896087323, 50.57627916420433 ], [ 9.936447325012971, 50.574655940521858 ], [ 9.936447325012971, 50.574655940521858 ], [ 9.936080850454603, 50.575104174202309 ], [ 9.935388620733237, 50.576078205764496 ] ] ] ] } },
{ "type": "Feature", "properties": { "id": 4117, "ParcelleID": "41-A7", "SurfaceSIG": 12947, "Peuplement": null }, "geometry": { "type": "MultiPolygon", "coordinates": [ [ [ [ 9.979786334823054, 50.562810682177741 ], [ 9.977383890495968, 50.56334524853181 ], [ 9.97663736824744, 50.563336626541961 ], [ 9.97665094137923, 50.563750480275601 ], [ 9.97713957412372, 50.563784967922679 ], [ 9.977655353131798, 50.563767724102298 ], [ 9.978279717194205, 50.56355217581509 ], [ 9.978781923070487, 50.563560797765511 ], [ 9.979637030373349, 50.56334524853181 ], [ 9.980505710808004, 50.563060722033669 ], [ 9.979786334823054, 50.562810682177741 ] ] ] ] } },
{ "type": "Feature", "properties": { "id": 3513, "ParcelleID": "35-A3", "SurfaceSIG": 39781, "Peuplement": null }, "geometry": { "type": "MultiPolygon", "coordinates": [ [ [ [ 9.974262406384156, 50.556411702874421 ], [ 9.97478554550379, 50.556379668183958 ], [ 9.975018752099292, 50.556247524855699 ], [ 9.974871281892133, 50.555895247313273 ], [ 9.974791422323806, 50.555783157463644 ], [ 9.974995019300675, 50.555688300270035 ], [ 9.975388640122627, 50.555627936501999 ], [ 9.975727968417413, 50.555757287338864 ], [ 9.975945138526075, 50.555878014466366 ], [ 9.976230174293699, 50.555947001257536 ], [ 9.976447344402361, 50.555929754569206 ], [ 9.976786672697147, 50.555740040581121 ], [ 9.977234586046267, 50.555533078996028 ], [ 9.977750365054341, 50.555300246126635 ], [ 9.978347582853162, 50.554972553473249 ], [ 9.977506048682095, 50.554481010221892 ], [ 9.977275305441641, 50.554463762997187 ], [ 9.977017415937603, 50.554463762997187 ], [ 9.976935977146853, 50.554627611377086 ], [ 9.976678087642814, 50.554825953390804 ], [ 9.976203028030115, 50.554687976426131 ], [ 9.976148735502949, 50.554412021285209 ], [ 9.975239335672921, 50.554412021285209 ], [ 9.974818568587386, 50.554481010221892 ], [ 9.975117177486798, 50.554618987792352 ], [ 9.975388640122627, 50.554825953390804 ], [ 9.97533434759546, 50.554929435849282 ], [ 9.973868449361984, 50.554912188788641 ], [ 9.973678425516905, 50.555041541589596 ], [ 9.973443031859425, 50.555466670353788 ], [ 9.973959868098103, 50.555947197731925 ], [ 9.974262406384156, 50.556411702874421 ] ] ] ] } },
{ "type": "Feature", "properties": { "id": 3514, "ParcelleID": "35-A4", "SurfaceSIG": 34120, "Peuplement": null }, "geometry": { "type": "MultiPolygon", "coordinates": [ [ [ [ 9.978347582853162, 50.554972553473249 ], [ 9.977750365054341, 50.555300246126635 ], [ 9.977234586046267, 50.555533078996028 ], [ 9.976786672697147, 50.555740040581121 ], [ 9.976447344402361, 50.555929754569206 ], [ 9.976230174293699, 50.555947001257536 ], [ 9.975945138526075, 50.555878014466366 ], [ 9.975727968417413, 50.555757287338864 ], [ 9.975388640122627, 50.555627936501999 ], [ 9.974995019300675, 50.555688300270035 ], [ 9.974791422323806, 50.555783157463644 ], [ 9.97504405431873, 50.555919639900004 ], [ 9.975831128706567, 50.556797764615276 ], [ 9.976172776270911, 50.557409572291277 ], [ 9.97661747737661, 50.557364963735075 ], [ 9.97692240401506, 50.557300846600917 ], [ 9.977003842805811, 50.557162876880447 ], [ 9.977546768077469, 50.556654110045841 ], [ 9.978076120217333, 50.556188454231552 ], [ 9.979080531969901, 50.55548133845776 ], [ 9.979039812574527, 50.555308869586746 ], [ 9.978849788729443, 50.555196764482183 ], [ 9.978347582853162, 50.554972553473249 ] ] ] ] } },
{ "type": "Feature", "properties": { "id": 4516, "ParcelleID": "45-A6", "SurfaceSIG": 44319, "Peuplement": null }, "geometry": { "type": "MultiPolygon", "coordinates": [ [ [ [ 9.985212194256817, 50.571634561853209 ], [ 9.984630874274751, 50.568710904732356 ], [ 9.984506391403652, 50.568117277841495 ], [ 9.982823323061488, 50.569056970108306 ], [ 9.982891188720449, 50.569875952670266 ], [ 9.982986200642989, 50.570212162442303 ], [ 9.983216943883447, 50.570591473150948 ], [ 9.983176224488069, 50.571022504340213 ], [ 9.983040493170156, 50.571091468964532 ], [ 9.983026920038363, 50.571324223826288 ], [ 9.98351555278286, 50.571453531585938 ], [ 9.984479245140069, 50.571505254590434 ], [ 9.984764280907692, 50.571625941380063 ], [ 9.985212194256817, 50.571634561853209 ] ] ] ] } },
{ "type": "Feature", "properties": { "id": 51, "ParcelleID": "51", "SurfaceSIG": 115707, "Peuplement": "52-B1" }, "geometry": { "type": "MultiPolygon", "coordinates": [ [ [ [ 9.933285345597104, 50.572312411007864 ], [ 9.933441938056806, 50.572711721780102 ], [ 9.933285200620537, 50.573402982216365 ], [ 9.933632686298779, 50.573435941561002 ], [ 9.934043351191246, 50.573520489339607 ], [ 9.934575861711153, 50.573623666084188 ], [ 9.935139961838171, 50.573672388357231 ], [ 9.9354558579093, 50.573732574624962 ], [ 9.935696653513405, 50.573681237075405 ], [ 9.936986261553898, 50.573327032334419 ], [ 9.940222122042304, 50.572520391145552 ], [ 9.940566894973175, 50.572241944400972 ], [ 9.941608234830181, 50.571756507775895 ], [ 9.942704382048083, 50.570989204723361 ], [ 9.941524217459094, 50.571012058084889 ], [ 9.939976712940936, 50.57090786858317 ], [ 9.938586000357965, 50.571208434166941 ], [ 9.935642062115592, 50.571255411904893 ], [ 9.93417009299441, 50.571349367380719 ], [ 9.933167901252329, 50.571513789463403 ], [ 9.933285345597104, 50.572312411007864 ] ], [ [ 9.935840416654447, 50.57294855919519 ], [ 9.935665433811444, 50.572531816936682 ], [ 9.935227976703931, 50.572212312041813 ], [ 9.935975394126283, 50.572243658423631 ], [ 9.936489853442124, 50.57222072960603 ], [ 9.936683888639871, 50.572205366259155 ], [ 9.936868928727479, 50.572283783827586 ], [ 9.937040415166093, 50.572398427650555 ], [ 9.937296328590385, 50.57261516568331 ], [ 9.937296328590385, 50.57279575412845 ], [ 9.937061615005877, 50.573231319732152 ], [ 9.936986261553898, 50.573327032334419 ], [ 9.935840416654447, 50.57294855919519 ] ] ] ] } },
{ "type": "Feature", "properties": { "id": 50, "ParcelleID": "50-1", "SurfaceSIG": 64537, "Peuplement": "53-1" }, "geometry": { "type": "MultiPolygon", "coordinates": [ [ [ [ 9.947858694435306, 50.586393266789109 ], [ 9.948794040147179, 50.586144517924325 ], [ 9.948983126575966, 50.585728327996947 ], [ 9.948882280480614, 50.584945961012934 ], [ 9.950105039386751, 50.583593295869285 ], [ 9.950130250910586, 50.582584774679333 ], [ 9.949474751290801, 50.582576770456534 ], [ 9.949421794260216, 50.582380429974705 ], [ 9.94917213749912, 50.582334193761227 ], [ 9.948849664182704, 50.582089801592964 ], [ 9.948600007421607, 50.582056775527008 ], [ 9.948154583929934, 50.58211915807626 ], [ 9.948154583929934, 50.582917647412593 ], [ 9.948025132276033, 50.58353999000682 ], [ 9.947118970698732, 50.584127098122231 ], [ 9.947008012138248, 50.584737682797346 ], [ 9.946712122643616, 50.585348259555339 ], [ 9.946878560484349, 50.585782703581529 ], [ 9.947858694435306, 50.586393266789109 ] ] ] ] } },
{ "type": "Feature", "properties": { "id": 535, "ParcelleID": "53-5", "SurfaceSIG": 34235, "Peuplement": "53-1" }, "geometry": { "type": "MultiPolygon", "coordinates": [ [ [ [ 9.92813477208229, 50.580481618351023 ], [ 9.928249785385196, 50.580421973977543 ], [ 9.929188280804357, 50.579432278423759 ], [ 9.928222971230365, 50.579134301495444 ], [ 9.927311289966035, 50.578746928670213 ], [ 9.926097949459832, 50.578099881241357 ], [ 9.924897174643169, 50.578890701775407 ], [ 9.928134772081158, 50.580481618350468 ], [ 9.92813477208229, 50.580481618351016 ], [ 9.928134772082284, 50.580481618351023 ], [ 9.92813477208229, 50.580481618351023 ] ] ] ] } },
{ "type": "Feature", "properties": { "id": 532, "ParcelleID": "53-2", "SurfaceSIG": 11985, "Peuplement": "53-1" }, "geometry": { "type": "MultiPolygon", "coordinates": [ [ [ [ 9.921727242222017, 50.580950867268022 ], [ 9.921737297530077, 50.581017909655337 ], [ 9.922508204481534, 50.581090272759916 ], [ 9.92308470881045, 50.581332901181554 ], [ 9.923346146820073, 50.581839437190744 ], [ 9.924050018384442, 50.582414072285601 ], [ 9.924441739335254, 50.582339652578781 ], [ 9.924171851745381, 50.582114728703644 ], [ 9.924171851745381, 50.58211472870363 ], [ 9.924171851745381, 50.581868382274465 ], [ 9.92373328441184, 50.58161132375708 ], [ 9.923716416437474, 50.58134355297608 ], [ 9.923007961514053, 50.58091511655968 ], [ 9.923024829488423, 50.580068943186774 ], [ 9.921727242222017, 50.580950867268022 ] ] ] ] } },
{ "type": "Feature", "properties": { "id": 533, "ParcelleID": "53-3", "SurfaceSIG": 12828, "Peuplement": "52-B3" }, "geometry": { "type": "MultiPolygon", "coordinates": [ [ [ [ 9.919478204985376, 50.582336390543766 ], [ 9.919679311146627, 50.58245982996398 ], [ 9.920101634085249, 50.58245982996398 ], [ 9.920135151778794, 50.582315107852395 ], [ 9.92278304956857, 50.58240023856014 ], [ 9.922749531875033, 50.582187411502261 ], [ 9.922923823881446, 50.582059714805858 ], [ 9.92291712034274, 50.581949044055555 ], [ 9.920450218098082, 50.58171918858929 ], [ 9.919478204985376, 50.582336390543766 ] ] ] ] } },
{ "type": "Feature", "properties": { "id": 534, "ParcelleID": "53-4", "SurfaceSIG": 59066, "Peuplement": "53-1" }, "geometry": { "type": "MultiPolygon", "coordinates": [ [ [ [ 9.921727242222017, 50.580950867268022 ], [ 9.920450218098082, 50.58171918858929 ], [ 9.92291712034274, 50.581949044055555 ], [ 9.922923823881446, 50.582059714805858 ], [ 9.922749531875033, 50.582187411502261 ], [ 9.92278304956857, 50.58240023856014 ], [ 9.920135151778794, 50.582315107852395 ], [ 9.920101634085249, 50.58245982996398 ], [ 9.919679311146627, 50.58245982996398 ], [ 9.919478204985376, 50.582336390543766 ], [ 9.919029067891923, 50.582603487502531 ], [ 9.920007784543333, 50.583280268233111 ], [ 9.920989852964103, 50.583288781136325 ], [ 9.921807684686515, 50.583629296003345 ], [ 9.922531666867011, 50.583842116544858 ], [ 9.922772994260512, 50.583842116544858 ], [ 9.92575744133589, 50.581814828532401 ], [ 9.924441739335254, 50.582339652578781 ], [ 9.924050018384442, 50.582414072285601 ], [ 9.923346146820073, 50.581839437190744 ], [ 9.92308470881045, 50.581332901181554 ], [ 9.922508204481534, 50.581090272759916 ], [ 9.921737297530077, 50.581017909655337 ], [ 9.921727242222017, 50.580950867268022 ] ] ] ] } },
{ "type": "Feature", "properties": { "id": 5222, "ParcelleID": "52-B2", "SurfaceSIG": 5135, "Peuplement": "52-B1" }, "geometry": { "type": "MultiPolygon", "coordinates": [ [ [ [ 9.936223598182169, 50.574358793848198 ], [ 9.935939291718151, 50.573960421941919 ], [ 9.934534352924228, 50.574606948691709 ], [ 9.934896344014476, 50.574632492100221 ], [ 9.935191299717644, 50.574726151146223 ], [ 9.935244928027309, 50.57492198309523 ], [ 9.936223598182169, 50.574358793848198 ] ] ] ] } },
{ "type": "Feature", "properties": { "id": 5224, "ParcelleID": "52-B4", "SurfaceSIG": 5048, "Peuplement": "52-B3" }, "geometry": { "type": "MultiPolygon", "coordinates": [ [ [ [ 9.934534352924228, 50.574606948691709 ], [ 9.933863999053401, 50.574777237820115 ], [ 9.933850591975984, 50.575109299849849 ], [ 9.934078512292064, 50.57521998667292 ], [ 9.934467317537145, 50.57521998667292 ], [ 9.934735459085477, 50.575151871735663 ], [ 9.935244928027309, 50.57492198309523 ], [ 9.935191299717644, 50.574726151146223 ], [ 9.934896344014476, 50.574632492100221 ], [ 9.934534352924228, 50.574606948691709 ] ] ] ] } },
{ "type": "Feature", "properties": { "id": 5221, "ParcelleID": "52-B1", "SurfaceSIG": 57992, "Peuplement": "52-B1" }, "geometry": { "type": "MultiPolygon", "coordinates": [ [ [ [ 9.93326185672815, 50.573424217471747 ], [ 9.933244240076434, 50.57436964444716 ], [ 9.930046817789929, 50.575212307620944 ], [ 9.930094650302125, 50.575270164388201 ], [ 9.930231506525828, 50.575288514512579 ], [ 9.930674412792706, 50.575347855869232 ], [ 9.930724186043877, 50.575353275918602 ], [ 9.931955616621154, 50.575543142226714 ], [ 9.934876335906484, 50.575995356470671 ], [ 9.935220628156333, 50.576039656916812 ], [ 9.935388620733237, 50.576078205764496 ], [ 9.936080850454603, 50.575104174202309 ], [ 9.936447325012971, 50.574655940521858 ], [ 9.936223598182169, 50.574358793848198 ], [ 9.935244928027309, 50.57492198309523 ], [ 9.934735459085477, 50.575151871735663 ], [ 9.934467317537145, 50.57521998667292 ], [ 9.934078512292064, 50.57521998667292 ], [ 9.933850591975984, 50.575109299849849 ], [ 9.933863999053401, 50.574777237820115 ], [ 9.934534352924228, 50.574606948691709 ], [ 9.935939291718151, 50.573960421941919 ], [ 9.935776830881572, 50.573814255865301 ], [ 9.9354558579093, 50.573732574624962 ], [ 9.935139961838171, 50.573672388357231 ], [ 9.934575861711153, 50.573623666084188 ], [ 9.934043351191246, 50.573520489339607 ], [ 9.933632686298779, 50.573435941561002 ], [ 9.93326185672815, 50.573424217471747 ] ] ] ] } },
{ "type": "Feature", "properties": { "id": 5225, "ParcelleID": "52-B5", "SurfaceSIG": 9976, "Peuplement": "52-B5" }, "geometry": { "type": "MultiPolygon", "coordinates": [ [ [ [ 9.936650921989845, 50.576276457509273 ], [ 9.935388620733237, 50.576078205764496 ], [ 9.935220628156333, 50.576039656916812 ], [ 9.934876335906484, 50.575995356470671 ], [ 9.934520945846813, 50.57632684059859 ], [ 9.934507538769397, 50.576624835288591 ], [ 9.937586668435321, 50.57668753657812 ], [ 9.936650921989845, 50.576276457509273 ] ] ] ] } },
{ "type": "Feature", "properties": { "id": 5226, "ParcelleID": "52-B6", "SurfaceSIG": 35774, "Peuplement": "52-B5" }, "geometry": { "type": "MultiPolygon", "coordinates": [ [ [ [ 9.934876335906484, 50.575995356470671 ], [ 9.930724186043877, 50.575353275918602 ], [ 9.930674412792641, 50.575347855869225 ], [ 9.930231506525828, 50.575288514512579 ], [ 9.930094650302125, 50.575270164388201 ], [ 9.930364751847662, 50.575815988172486 ], [ 9.931437318040993, 50.576869615230748 ], [ 9.931655515353583, 50.577072791920813 ], [ 9.932869458826925, 50.576751820365445 ], [ 9.934507538769397, 50.576624835288591 ], [ 9.934520945846813, 50.57632684059859 ], [ 9.934876335906484, 50.575995356470671 ] ] ] ] } },
{ "type": "Feature", "properties": { "id": 5211, "ParcelleID": "52-A1", "SurfaceSIG": 8806, "Peuplement": null }, "geometry": { "type": "MultiPolygon", "coordinates": [ [ [ [ 9.93836877706538, 50.573542627691957 ], [ 9.939521785723208, 50.573287187073802 ], [ 9.939950812200539, 50.572972141737118 ], [ 9.940222122042304, 50.572520391145552 ], [ 9.937622592093762, 50.573187206910823 ], [ 9.93836877706538, 50.573542627691957 ] ] ] ] } },
{ "type": "Feature", "properties": { "id": 5213, "ParcelleID": "52-A3", "SurfaceSIG": 5287, "Peuplement": null }, "geometry": { "type": "MultiPolygon", "coordinates": [ [ [ [ 9.937622592093762, 50.573187206910823 ], [ 9.935696653513405, 50.573681237075405 ], [ 9.935948317320184, 50.573837183907308 ], [ 9.9372559896398, 50.573610744956198 ], [ 9.93836877706538, 50.573542627691957 ], [ 9.937622592093762, 50.573187206910823 ] ] ] ] } },
{ "type": "Feature", "properties": { "id": 5212, "ParcelleID": "52-A2", "SurfaceSIG": 32060, "Peuplement": null }, "geometry": { "type": "MultiPolygon", "coordinates": [ [ [ [ 9.9372559896398, 50.573610744956198 ], [ 9.936010153510118, 50.573829178237645 ], [ 9.935948317320184, 50.573837183907308 ], [ 9.936634263074637, 50.574737100741174 ], [ 9.937825642542897, 50.576384993052507 ], [ 9.938020193052548, 50.57511568563519 ], [ 9.938717361078211, 50.57408543440652 ], [ 9.939521785723208, 50.573287187073802 ], [ 9.93836877706538, 50.573542627691957 ], [ 9.9372559896398, 50.573610744956198 ] ] ] ] } },
{ "type": "Feature", "properties": { "id": 5214, "ParcelleID": "52-A4", "SurfaceSIG": 33369, "Peuplement": null }, "geometry": { "type": "MultiPolygon", "coordinates": [ [ [ [ 9.937825642542897, 50.576384993052507 ], [ 9.93836877706538, 50.576571622089368 ], [ 9.9411306350132, 50.576571622089368 ], [ 9.939106166323292, 50.575345573330281 ], [ 9.93969780682184, 50.574003609572614 ], [ 9.939094925851993, 50.573737402391124 ], [ 9.938717361078211, 50.57408543440652 ], [ 9.938020193052548, 50.57511568563519 ], [ 9.937825642542897, 50.576384993052507 ] ] ] ] } },
{ "type": "Feature", "properties": { "id": 514, "ParcelleID": "51-4", "SurfaceSIG": 10762, "Peuplement": "52-B3" }, "geometry": { "type": "MultiPolygon", "coordinates": [ [ [ [ 9.937061615005877, 50.573231319732152 ], [ 9.937296328590385, 50.57279575412845 ], [ 9.937296328590385, 50.57261516568331 ], [ 9.937040415166093, 50.572398427650555 ], [ 9.936868928727479, 50.572283783827594 ], [ 9.936683888639871, 50.572205366259155 ], [ 9.936489853442124, 50.57222072960603 ], [ 9.935975394126283, 50.572243658423631 ], [ 9.935227976703931, 50.572212312041813 ], [ 9.935665433811444, 50.572531816936682 ], [ 9.935840416654447, 50.57294855919519 ], [ 9.936986261553898, 50.573327032334419 ], [ 9.937061615005877, 50.573231319732152 ] ] ] ] } },
{ "type": "Feature", "properties": { "id": 513, "ParcelleID": "51-3", "SurfaceSIG": 4187, "Peuplement": "52-B3" }, "geometry": { "type": "MultiPolygon", "coordinates": [ [ [ [ 9.942803779498847, 50.57090786858317 ], [ 9.942421004529688, 50.570821043822377 ], [ 9.941999952063618, 50.57074811089965 ], [ 9.940660239671571, 50.57074811089965 ], [ 9.939976712940936, 50.57090786858317 ], [ 9.941524217459094, 50.571012058084889 ], [ 9.942704382048083, 50.570989204723361 ], [ 9.942803779498847, 50.57090786858317 ] ] ] ] } }
]
}
